LES 9                   
1 08747U 76023B   09240.76648137 -.00000076  00000-0  10000-3 0  3173
2 08747  10.9684 146.3803 0023785 328.6678  31.1768  1.00268552 68151
MARISAT 2               
1 09478U 76101A   09242.28919673 -.00000074  00000-0  10000-3 0  1780
2 09478  13.2475 355.4588 0099704 200.1870 159.4714  0.97590192 63616
GOES 3                  
1 10953U 78062A   09241.35349663 -.00000117  00000-0  10000-3 0  6166
2 10953  14.3847 359.4927 0001916  10.2495 349.7946  1.00265524 67408
ESIAFI 1 (COMSTAR 4)    
1 12309U 81018A   09241.88627652 -.00000087  00000-0  10000-3 0  2659
2 12309  13.9911   9.5939 0004681 274.2939  85.6968  1.00261354105933
SATCOM C5               
1 13631U 82105A   09241.43906604 -.00000116  00000-0  10000-3 0  6639
2 13631  12.6522  30.8608 0002743 224.9532 135.0841  1.00272337 64852
TDRS 1                  
1 13969U 83026B   09242.40589332 -.00000304  00000-0  10000-3 0  9147
2 13969  13.3942   8.6819 0027392 231.0976 196.2271  1.00276334 69745
GSTAR 1                 
1 15677U 85035A   09240.49531716 -.00000109  00000-0  10000-3 0  1771
2 15677  10.8406  49.9938 0005103 264.4096  95.6195  1.00272452 63703
INTELSAT 511            
1 15873U 85055A   09241.04936323  .00000120  00000-0  10000-3 0  4298
2 15873  12.1489  38.4050 0011500 289.1136  70.8345  1.00087463 63115
GOES 7                  
1 17561U 87022A   09242.39009631  .00000070  00000-0  10000-3 0  1057
2 17561  12.2439  36.5014 0002900 140.2982 130.1528  1.00272577 65652
GSTAR 3                 
1 19483U 88081A   09241.41103623 -.00000116  00000-0  10000-3 0  2509
2 19483  14.4092  20.3113 0004742 353.3233   6.7148  1.00272885 73094
TDRS 3                  
1 19548U 88091B   09241.78226966 -.00000059  00000-0  10000-3 0  3369
2 19548  11.9790  39.1663 0034415 273.2559  98.1117  1.01090733 63880
ASTRA 1A                
1 19688U 88109B   09240.65975902 -.00000084  00000-0  10000-3 0  6013
2 19688   7.7899  63.4657 0013580 319.2377  40.7931  0.98336940 55763
TDRS 4                  
1 19883U 89021B   09242.08897488 -.00000290  00000-0  10000-3 0  6452
2 19883  10.6662  50.9733 0000355 108.2568 165.3808  1.00268850247455
INTELSAT 602 (IS-602)   
1 20315U 89087A   09242.56662816  .00000024  00000-0  10000-3 0  9462
2 20315   7.0848  65.1999 0000881  63.0707 232.4210  1.00272886 70464
LEASAT 5                
1 20410U 90002B   09241.78779834 -.00000322  00000-0  10000-3 0  1812
2 20410   8.4433  34.9557 0000901  54.0264 272.7685  1.00274438 57171
INTELSAT 603 (IS-603)   
1 20523U 90021A   09241.15038168 -.00000168  00000-0  10000-3 0  5112
2 20523   6.5645  66.8008 0000999  80.4840 224.3874  1.00273147 64206
ASIASAT 1               
1 20558U 90030A   09242.45205390 -.00000100  00000-0  10000-3 0  7328
2 20558   9.2270  59.4005 0003636 176.9367 183.1996  0.99241478 70819
INSAT-1D                
1 20643U 90051A   09240.99712957 -.00000149  00000-0  10000-3 0  3627
2 20643   9.9612  55.4209 0018837  44.6752 315.5814  1.00283457 57227
COSMOS 2085             
1 20693U 90061A   09241.95132897 -.00000101  00000-0  10000-3 0  9713
2 20693  12.2714  35.0470 0002067 278.5107  81.5372  1.00261144 69980
SKYNET 4C               
1 20776U 90079A   09241.14579757  .00000019  00000-0  10000-3 0  9835
2 20776  10.0008  46.5901 0002900  88.1655 261.2658  1.00270563 69416
EUTELSAT 2-F1           
1 20777U 90079B   09241.57094651  .00000072  00000-0  10000-3 0  9297
2 20777   9.4162  58.4845 0005196 141.9972 218.1590  0.99343764 49818
GALAXY 6                
1 20873U 90091B   09240.80596516 -.00000218  00000-0  10000-3 0  3141
2 20873   6.3493  67.6702 0003473  66.1730 294.0245  0.99770298 63573
INMARSAT 2-F1           
1 20918U 90093A   09242.64199872  .00000098  00000-0  10000-3 0  5676
2 20918   6.7728  54.6151 0003201 103.0815 270.4229  1.00270918 65429
GSTAR 4                 
1 20946U 90100B   09241.64808179  .00000043  00000-0  10000-3 0  3153
2 20946   6.5459  67.5110 0004626 159.2764 200.9098  0.99142160 63463
COSMOS 2133             
1 21111U 91010A   09240.95542616 -.00000158  00000-0  10000-3 0  1890
2 21111  11.4044  41.1501 0003727   1.2970 358.7815  1.00278107 67918
INMARSAT 2-F2           
1 21149U 91018A   09240.42802697 -.00000150  00000-0  10000-3 0  6672
2 21149   6.0821  55.0475 0003934  91.3858 246.4074  1.00272414 67680
TDRS 5                  
1 21639U 91054B   09239.61116870  .00000093  00000-0  10000-3 0  5018
2 21639  10.0168  54.7451 0008197 335.8956 357.7523  1.00277360 66177
ANIK E1                 
1 21726U 91067A   09241.11469917  .00000076  00000-0  10000-3 0  1905
2 21726   5.9417  69.6302 0003297 172.8041 187.3796  0.99167629 56423
INTELSAT 601 (IS-601)   
1 21765U 91075A   09241.67214389  .00000113  00000-0  10000-3 0  8290
2 21765   4.6631  71.3568 0000276 323.0117 233.0916  1.00273964 65158
EUTELSAT 2-F3           
1 21803U 91083A   09240.81517183 -.00000306  00000-0  10000-3 0  7637
2 21803   8.5889  61.5467 0001580 119.3378 240.8022  0.99300676 60733
GALAXY 5                
1 21906U 92013A   09240.12967775  .00000087  00000-0  10000-3 0  9508
2 21906   4.4099  72.6066 0013662 287.0461  73.0151  0.99286155 55472
INMARSAT 2-F4           
1 21940U 92021B   09242.73363907 -.00000361  00000-0  10000-3 0  3837
2 21940   4.6959  50.0882 0002416  99.6340 202.4037  1.00268650 63597
EUTELSAT 2-F4           
1 22028U 92041B   09241.68440131 -.00000039  00000-0  10000-3 0  1992
2 22028   7.7944  64.7095 0005732 102.7987 257.4111  0.99079641 55443
SATCOM C3               
1 22117U 92060B   09242.29295104 -.00000246  00000-0  10000-3 0  1932
2 22117   4.5636  71.5481 0001468  84.6768 208.8025  1.00270720 62117
HELLAS SAT 1 (DFS 3)    
1 22175U 92066A   09241.04874884  .00000034  00000-0  10000-3 0  4052
2 22175   7.0818  65.5480 0001817 290.3533  69.7737  0.99723551 59401
GORIZONT 27             
1 22245U 92082A   09241.81173958 -.00000342  00000-0  10000-3 0  4757
2 22245  11.4195  44.0902 0014325 221.9926 137.9902  1.00197573 65682
COSMOS 2224             
1 22269U 92088A   09240.22051698 -.00000094  00000-0  10000-3 0  5765
2 22269  10.5608  46.8808 0003622 112.2414 247.9037  1.00270705 60634
TDRS 6                  
1 22314U 93003B   09241.53243895  .00000081  00000-0  10000-3 0  5272
2 22314   9.3749  57.7770 0005830   0.3858 300.0115  1.00273833 60912
ASTRA 1C                
1 22653U 93031A   09242.91834346 -.00000000  00000-0  10000-3 0  4540
2 22653   2.7681  76.7621 0004018  74.0632 160.9565  1.00271963 54806
INSAT-2B                
1 22724U 93048B   09242.13348600  .00000128  00000-0  10000-3 0  2889
2 22724   8.0958  62.6065 0015448  47.9937 312.2823  0.99968284 59252
ACTS                    
1 22796U 93058B   09241.51227441 -.00000105  00000-0  10000-3 0  6812
2 22796   9.5940  56.9242 0005640  30.4254 329.7220  1.00273331 65383
INTELSAT 701 (IS-701)   
1 22871U 93066A   09242.40140036  .00000042  00000-0  10000-3 0  4040
2 22871   0.0186 125.5377 0002676  20.3526 157.3250  1.00273118 57947
GORIZONT 29             
1 22907U 93072A   09240.89518434 -.00000343  00000-0  10000-3 0  6888
2 22907  10.9200  47.4962 0012343 205.3570 154.6822  1.00126105 57759
SOLIDARIDAD 1           
1 22911U 93073A   09241.52023862 -.00000120  00000-0  10000-3 0  2194
2 22911   8.0740  62.5932 0004195  88.6463 271.5364  1.00266840 56395
METEOSAT-6 (MOP-3)      
1 22912U 93073B   09242.77120961 -.00000029  00000-0  10000-3 0  2256
2 22912   8.5435  58.9800 0000561 168.7681  96.3839  1.00271438 56210
NATO 4B                 
1 22921U 93076A   09242.10808444  .00000137  00000-0  10000-3 0  2063
2 22921   7.9357  51.9711 0001914  76.5077 283.6531  1.00278254 57638
THAICOM 1               
1 22931U 93078B   09240.77729361 -.00000375  00000-0  10000-3 0  4514
2 22931   0.5045  75.5872 0001742 182.9219 118.3292  1.00266382 57054
GOES 8                  
1 23051U 94022A   09241.34302776 -.00000244  00000-0  10000-3 0  9171
2 23051   5.9296  72.6040 0005573 155.8387 204.3652  0.98907483 63447
INTELSAT 702 (IS-702)   
1 23124U 94034A   09240.62912794 -.00000014  00000-0  10000-3 0  2653
2 23124   0.0060 219.5207 0002899 296.8374 113.1056  1.00273525 69842
INTELSAT 2 (IS-2)       
1 23175U 94040A   09242.57603704 -.00000041  00000-0  10000-3 0  4966
2 23175   0.6398  82.8203 0002452  64.7237 207.8142  1.00272670 54773
BS-3N                   
1 23176U 94040B   09240.88790328 -.00000362  00000-0  10000-3 0   465
2 23176   0.0948 279.3628 0000176 156.1586 331.2199  1.00271258 55267
APSTAR 1                
1 23185U 94043A   09242.01935181 -.00000278  00000-0  10000-3 0  2618
2 23185   4.5958  71.2397 0001018  60.4258 355.6315  1.00273206 55320
DIRECTV 2 (DBS 2)       
1 23192U 94047A   09241.33068140 -.00000225  00000-0  10000-3 0  4946
2 23192   2.5716  76.7358 0008922 182.5352 177.7989  0.98637177 65156
BRASILSAT B1            
1 23199U 94049A   09241.20412509 -.00000282  00000-0  10000-3 0  3226
2 23199   2.3248  77.5012 0002169  70.4060 195.1070  1.00268415 66004
OPTUS B3                
1 23227U 94055A   09241.46794868 -.00000087  00000-0  10000-3 0  3980
2 23227   1.6279  78.6951 0004729  62.2920 169.2460  1.00271611 54930
NSS-703                 
1 23305U 94064A   09242.78378314  .00000060  00000-0  10000-3 0  9950
2 23305   0.0711  83.0480 0003138  68.3714 166.8303  1.00272611 54670
SOLIDARIDAD 2           
1 23313U 94065A   09243.22317278 -.00000036  00000-0  10000-3 0  4119
2 23313   1.4206  79.2343 0002155  74.5628 151.1685  1.00272487 54546
THAICOM 2               
1 23314U 94065B   09240.64631900 -.00000133  00000-0  10000-3 0  3425
2 23314   0.0755  22.6564 0003542 198.1810  67.3139  1.00271077 54495
EXPRESS 1               
1 23319U 94067A   09241.99644344 -.00000099  00000-0  10000-3 0  7354
2 23319   8.2775  61.9463 0003131  92.4857 267.6903  0.99817736 54351
